SL-16 R/B               
1 25400U 98043G   26040.87667564  .00000090  00000+0  56603-4 0  9998
2 25400  98.8207 354.0514 0010939  94.6191 265.6239 14.26043051435024
SL-16 R/B               
1 25407U 98045B   26040.95562903  .00000074  00000+0  61559-4 0  9995
2 25407  71.0082 239.8975 0005424  59.6725 300.4934 14.16185342423175
ISS (ZARYA)             
1 25544U 98067A   26040.82615589  .00009178  00000+0  17726-3 0  9996
2 25544  51.6312 210.0960 0011100  81.8534 278.3713 15.48509326552017
CZ-4B R/B               
1 25732U 99025C   26040.73776287  .00000057  00000+0  48080-4 0  9998
2 25732  98.6683  85.6741 0038061  66.1565  43.6825 14.18259639384202
OKEAN-O                 
1 25860U 99039A   26040.73545621  .00000823  00000+0  11495-3 0  9991
2 25860  97.9506 100.9024 0001861  85.5330 274.6094 14.80289404430251
SL-16 R/B               
1 25861U 99039B   26040.74174402  .00000675  00000+0  92448-4 0  9991
2 25861  98.0028  99.8711 0014547 353.5768   6.5256 14.81691517432729
DELTA 2 R/B             
1 25876U 99041E   26040.47828125  .00002302  00000+0  40772-3 0  9999
2 25876  51.7653  53.9389 0502287 265.0872  89.2559 14.11724151359044
HELIOS 1B               
1 25977U 99064A   26040.93479252  .00002226  00000+0  25153-3 0  9991
2 25977  98.1721 302.3591 0002108 114.6474 245.4961 14.87582196681132
TERRA                   
1 25994U 99068A   26040.91768278  .00000486  00000+0  10828-3 0  9990
2 25994  97.9654  95.4049 0000933 263.4452 201.1345 14.60984026391024
SL-16 R/B               
1 26070U 00006B   26040.75185384 -.00000135  00000+0 -44362-4 0  9997
2 26070  71.0031 156.5796 0018340 229.6583 130.2939 14.15820545344608
TITAN 4B R/B            
1 26474U 00047B   26040.93203165  .00003431  00000+0  21958-3 0  9993
2 26474  67.9891 118.5505 0037059  69.4506 291.0613 15.09329085388726
ENVISAT                 
1 27386U 02009A   26040.86885023  .00000165  00000+0  67395-4 0  9994
2 27386  98.3680 355.1371 0001318  90.1890 330.3481 14.39026404255172
