CCSDS_OMM_VERS = 2.0
CREATION_DATE  = 
ORIGINATOR     = 

OBJECT_NAME    = SL-16 R/B
OBJECT_ID      = 1998-043G
CENTER_NAME    = EARTH
REF_FRAME      = TEME
TIME_SYSTEM    = UTC
MEAN_ELEMENT_THEORY = SGP/SGP4

EPOCH          = 2026-02-09T21:02:24.775296
MEAN_MOTION    = 14.26043051
ECCENTRICITY   = .00109397
INCLINATION    = 98.8207
RA_OF_ASC_NODE = 354.0514
ARG_OF_PERICENTER = 94.6191
MEAN_ANOMALY   = 265.6239

EPHEMERIS_TYPE = 0
CLASSIFICATION_TYPE = U
NORAD_CAT_ID   = 25400
ELEMENT_SET_NO = 999
REV_AT_EPOCH   = 43502
BSTAR          = .56603368E-4
MEAN_MOTION_DOT = .9E-6
MEAN_MOTION_DDOT = 0

CCSDS_OMM_VERS = 2.0
CREATION_DATE  = 
ORIGINATOR     = 

OBJECT_NAME    = SL-16 R/B
OBJECT_ID      = 1998-045B
CENTER_NAME    = EARTH
REF_FRAME      = TEME
TIME_SYSTEM    = UTC
MEAN_ELEMENT_THEORY = SGP/SGP4

EPOCH          = 2026-02-09T22:56:06.348192
MEAN_MOTION    = 14.16185342
ECCENTRICITY   = .00054244
INCLINATION    = 71.0082
RA_OF_ASC_NODE = 239.8975
ARG_OF_PERICENTER = 59.6725
MEAN_ANOMALY   = 300.4934

EPHEMERIS_TYPE = 0
CLASSIFICATION_TYPE = U
NORAD_CAT_ID   = 25407
ELEMENT_SET_NO = 999
REV_AT_EPOCH   = 42317
BSTAR          = .61558826E-4
MEAN_MOTION_DOT = .74E-6
MEAN_MOTION_DDOT = 0

CCSDS_OMM_VERS = 2.0
CREATION_DATE  = 
ORIGINATOR     = 

OBJECT_NAME    = ISS (ZARYA)
OBJECT_ID      = 1998-067A
CENTER_NAME    = EARTH
REF_FRAME      = TEME
TIME_SYSTEM    = UTC
MEAN_ELEMENT_THEORY = SGP/SGP4

EPOCH          = 2026-02-09T19:49:39.868896
MEAN_MOTION    = 15.48509326
ECCENTRICITY   = .00111004
INCLINATION    = 51.6312
RA_OF_ASC_NODE = 210.0960
ARG_OF_PERICENTER = 81.8534
MEAN_ANOMALY   = 278.3713

EPHEMERIS_TYPE = 0
CLASSIFICATION_TYPE = U
NORAD_CAT_ID   = 25544
ELEMENT_SET_NO = 999
REV_AT_EPOCH   = 55201
BSTAR          = .17726444E-3
MEAN_MOTION_DOT = .9178E-4
MEAN_MOTION_DDOT = 0

CCSDS_OMM_VERS = 2.0
CREATION_DATE  = 
ORIGINATOR     = 

OBJECT_NAME    = CZ-4B R/B
OBJECT_ID      = 1999-025C
CENTER_NAME    = EARTH
REF_FRAME      = TEME
TIME_SYSTEM    = UTC
MEAN_ELEMENT_THEORY = SGP/SGP4

EPOCH          = 2026-02-09T17:42:22.711968
MEAN_MOTION    = 14.18259639
ECCENTRICITY   = .00380614
INCLINATION    = 98.6683
RA_OF_ASC_NODE = 85.6741
ARG_OF_PERICENTER = 66.1565
MEAN_ANOMALY   = 43.6825

EPHEMERIS_TYPE = 0
CLASSIFICATION_TYPE = U
NORAD_CAT_ID   = 25732
ELEMENT_SET_NO = 999
REV_AT_EPOCH   = 38420
BSTAR          = .48080267E-4
MEAN_MOTION_DOT = .57E-6
MEAN_MOTION_DDOT = 0

CCSDS_OMM_VERS = 2.0
CREATION_DATE  = 
ORIGINATOR     = 

OBJECT_NAME    = OKEAN-O
OBJECT_ID      = 1999-039A
CENTER_NAME    = EARTH
REF_FRAME      = TEME
TIME_SYSTEM    = UTC
MEAN_ELEMENT_THEORY = SGP/SGP4

EPOCH          = 2026-02-09T17:39:03.416544
MEAN_MOTION    = 14.80289404
ECCENTRICITY   = .00018614
INCLINATION    = 97.9506
RA_OF_ASC_NODE = 100.9024
ARG_OF_PERICENTER = 85.5330
MEAN_ANOMALY   = 274.6094

EPHEMERIS_TYPE = 0
CLASSIFICATION_TYPE = U
NORAD_CAT_ID   = 25860
ELEMENT_SET_NO = 999
REV_AT_EPOCH   = 43025
BSTAR          = .11494501E-3
MEAN_MOTION_DOT = .823E-5
MEAN_MOTION_DDOT = 0

CCSDS_OMM_VERS = 2.0
CREATION_DATE  = 
ORIGINATOR     = 

OBJECT_NAME    = SL-16 R/B
OBJECT_ID      = 1999-039B
CENTER_NAME    = EARTH
REF_FRAME      = TEME
TIME_SYSTEM    = UTC
MEAN_ELEMENT_THEORY = SGP/SGP4

EPOCH          = 2026-02-09T17:48:06.683328
MEAN_MOTION    = 14.81691517
ECCENTRICITY   = .00145478
INCLINATION    = 98.0028
RA_OF_ASC_NODE = 99.8711
ARG_OF_PERICENTER = 353.5768
MEAN_ANOMALY   = 6.5256

EPHEMERIS_TYPE = 0
CLASSIFICATION_TYPE = U
NORAD_CAT_ID   = 25861
ELEMENT_SET_NO = 999
REV_AT_EPOCH   = 43272
BSTAR          = .92448476E-4
MEAN_MOTION_DOT = .675E-5
MEAN_MOTION_DDOT = 0

CCSDS_OMM_VERS = 2.0
CREATION_DATE  = 
ORIGINATOR     = 

OBJECT_NAME    = DELTA 2 R/B
OBJECT_ID      = 1999-041E
CENTER_NAME    = EARTH
REF_FRAME      = TEME
TIME_SYSTEM    = UTC
MEAN_ELEMENT_THEORY = SGP/SGP4

EPOCH          = 2026-02-09T11:28:43.500000
MEAN_MOTION    = 14.11724151
ECCENTRICITY   = .05022877
INCLINATION    = 51.7653
RA_OF_ASC_NODE = 53.9389
ARG_OF_PERICENTER = 265.0872
MEAN_ANOMALY   = 89.2559

EPHEMERIS_TYPE = 0
CLASSIFICATION_TYPE = U
NORAD_CAT_ID   = 25876
ELEMENT_SET_NO = 999
REV_AT_EPOCH   = 35904
BSTAR          = .40772428E-3
MEAN_MOTION_DOT = .2302E-4
MEAN_MOTION_DDOT = 0

CCSDS_OMM_VERS = 2.0
CREATION_DATE  = 
ORIGINATOR     = 

OBJECT_NAME    = HELIOS 1B
OBJECT_ID      = 1999-064A
CENTER_NAME    = EARTH
REF_FRAME      = TEME
TIME_SYSTEM    = UTC
MEAN_ELEMENT_THEORY = SGP/SGP4

EPOCH          = 2026-02-09T22:26:06.073728
MEAN_MOTION    = 14.87582196
ECCENTRICITY   = .00021085
INCLINATION    = 98.1721
RA_OF_ASC_NODE = 302.3591
ARG_OF_PERICENTER = 114.6474
MEAN_ANOMALY   = 245.4961

EPHEMERIS_TYPE = 0
CLASSIFICATION_TYPE = U
NORAD_CAT_ID   = 25977
ELEMENT_SET_NO = 999
REV_AT_EPOCH   = 68113
BSTAR          = .25152647E-3
MEAN_MOTION_DOT = .2226E-4
MEAN_MOTION_DDOT = 0

CCSDS_OMM_VERS = 2.0
CREATION_DATE  = 
ORIGINATOR     = 

OBJECT_NAME    = TERRA
OBJECT_ID      = 1999-068A
CENTER_NAME    = EARTH
REF_FRAME      = TEME
TIME_SYSTEM    = UTC
MEAN_ELEMENT_THEORY = SGP/SGP4

EPOCH          = 2026-02-09T22:01:27.792192
MEAN_MOTION    = 14.60984026
ECCENTRICITY   = .00009332
INCLINATION    = 97.9654
RA_OF_ASC_NODE = 95.4049
ARG_OF_PERICENTER = 263.4452
MEAN_ANOMALY   = 201.1345

EPHEMERIS_TYPE = 0
CLASSIFICATION_TYPE = U
NORAD_CAT_ID   = 25994
ELEMENT_SET_NO = 999
REV_AT_EPOCH   = 39102
BSTAR          = .10828122E-3
MEAN_MOTION_DOT = .486E-5
MEAN_MOTION_DDOT = 0

CCSDS_OMM_VERS = 2.0
CREATION_DATE  = 
ORIGINATOR     = 

OBJECT_NAME    = SL-16 R/B
OBJECT_ID      = 2000-006B
CENTER_NAME    = EARTH
REF_FRAME      = TEME
TIME_SYSTEM    = UTC
MEAN_ELEMENT_THEORY = SGP/SGP4

EPOCH          = 2026-02-09T18:02:40.171776
MEAN_MOTION    = 14.15820545
ECCENTRICITY   = .00183401
INCLINATION    = 71.0031
RA_OF_ASC_NODE = 156.5796
ARG_OF_PERICENTER = 229.6583
MEAN_ANOMALY   = 130.2939

EPHEMERIS_TYPE = 0
CLASSIFICATION_TYPE = U
NORAD_CAT_ID   = 26070
ELEMENT_SET_NO = 999
REV_AT_EPOCH   = 34460
BSTAR          = -.44362377E-4
MEAN_MOTION_DOT = -.135E-5
MEAN_MOTION_DDOT = 0

CCSDS_OMM_VERS = 2.0
CREATION_DATE  = 
ORIGINATOR     = 

OBJECT_NAME    = TITAN 4B R/B
OBJECT_ID      = 2000-047B
CENTER_NAME    = EARTH
REF_FRAME      = TEME
TIME_SYSTEM    = UTC
MEAN_ELEMENT_THEORY = SGP/SGP4

EPOCH          = 2026-02-09T22:22:07.534560
MEAN_MOTION    = 15.09329085
ECCENTRICITY   = .00370594
INCLINATION    = 67.9891
RA_OF_ASC_NODE = 118.5505
ARG_OF_PERICENTER = 69.4506
MEAN_ANOMALY   = 291.0613

EPHEMERIS_TYPE = 0
CLASSIFICATION_TYPE = U
NORAD_CAT_ID   = 26474
ELEMENT_SET_NO = 999
REV_AT_EPOCH   = 38872
BSTAR          = .2195778E-3
MEAN_MOTION_DOT = .3431E-4
MEAN_MOTION_DDOT = 0

CCSDS_OMM_VERS = 2.0
CREATION_DATE  = 
ORIGINATOR     = 

OBJECT_NAME    = ENVISAT
OBJECT_ID      = 2002-009A
CENTER_NAME    = EARTH
REF_FRAME      = TEME
TIME_SYSTEM    = UTC
MEAN_ELEMENT_THEORY = SGP/SGP4

EPOCH          = 2026-02-09T20:51:08.659872
MEAN_MOTION    = 14.39026404
ECCENTRICITY   = .00013189
INCLINATION    = 98.3680
RA_OF_ASC_NODE = 355.1371
ARG_OF_PERICENTER = 90.1890
MEAN_ANOMALY   = 330.3481

EPHEMERIS_TYPE = 0
CLASSIFICATION_TYPE = U
NORAD_CAT_ID   = 27386
ELEMENT_SET_NO = 999
REV_AT_EPOCH   = 25517
BSTAR          = .67394923E-4
MEAN_MOTION_DOT = .165E-5
MEAN_MOTION_DDOT = 0

